0 DELTA 1 DEB
1 21461U 75052EV  13280.90423733  .00000070  00000-0  24547-3 0  4018
2 21461 099.6343 313.7746 0205618 183.1987 302.8488 13.19295078 79576
0 DELTA 1 DEB
1 21461U 75052EV  13283.09115759  .00000083  00000-0  27502-3 0  4026
2 21461 099.6339 315.7804 0205695 178.0547 249.5333 13.19295555 79866
0 DELTA 1 DEB
1 21461U 75052EV  13285.37723810  .00000104  00000-0  32281-3 0  4037
2 21461 099.6331 317.8774 0205758 172.6825 307.1727 13.19296144 80164
0 DELTA 1 DEB
1 21461U 75052EV  13288.33722412  .00000139  00000-0  40031-3 0  4044
2 21461 099.6323 320.5921 0205813 165.7353 325.4956 13.19297336 80555
0 DELTA 1 DEB
1 21461U 75052EV  13290.38476860  .00000108  00000-0  32968-3 0  4052
2 21461 099.6320 322.4697 0205848 160.9259 330.2285 13.19298068 80825
0 DELTA 1 DEB
1 21461U 75052EV  13292.58397662  .00000113  00000-0  34060-3 0  4060
2 21461 099.6317 324.4860 0205877 155.7541 335.2915 13.19298892 81116
0 DELTA 1 DEB
1 21461U 75052EV  13294.76942372  .00000118  00000-0  35133-3 0  4074
2 21461 099.6317 326.4900 0205899 150.6212 275.0026 13.19299486 81402
